{
  "type": "FeatureCollection",
  "features": [
    {
      "type": "Feature",
      "properties": {
        "norad_id": 66425,
        "name": "STARLINK-35555",
        "group": "last-30-days",
        "lat": -38.016487543499274,
        "lon": 50.920498131195224,
        "alt_km": 417.4928197616864,
        "timestamp": "2025-12-02T08:59:31.502930+00:00",
        "meta_object_name": "STARLINK-35555",
        "meta_object_id": "2025-259D",
        "meta_epoch": "2025-12-02T04:00:03.998880",
        "meta_mean_motion": 15.50503819,
        "meta_eccentricity": 0.0001427,
        "meta_inclination": 42.9996,
        "meta_ra_of_asc_node": 109.1649,
        "meta_arg_of_pericenter": 263.579,
        "meta_mean_anomaly": 309.6609,
        "meta_ephemeris_type": 0,
        "meta_classification_type": "U",
        "meta_norad_cat_id": 66425,
        "meta_element_set_no": 999,
        "meta_rev_at_epoch": 458,
        "meta_bstar": 0.0011791,
        "meta_mean_motion_dot": 0.0006926,
        "meta_mean_motion_ddot": 0,
        "tle_line1": "1 66425U 25259D   25336.16671295  .00069260  00000+0  11791-2 0  9995",
        "tle_line2": "2 66425  42.9996 109.1649 0001427 263.5790 309.6609 15.50503819  4587"
      },
      "geometry": {
        "type": "Point",
        "coordinates": [
          50.920498131195224,
          -38.016487543499274
        ]
      }
    },
    {
      "type": "Feature",
      "properties": {
        "norad_id": 66426,
        "name": "STARLINK-35589",
        "group": "last-30-days",
        "lat": -37.289560359941056,
        "lon": 53.1381589190903,
        "alt_km": 417.47920625186725,
        "timestamp": "2025-12-02T08:59:31.502940+00:00",
        "meta_object_name": "STARLINK-35589",
        "meta_object_id": "2025-259E",
        "meta_epoch": "2025-12-02T04:00:03.998880",
        "meta_mean_motion": 15.50495469,
        "meta_eccentricity": 0.000148,
        "meta_inclination": 42.9996,
        "meta_ra_of_asc_node": 109.1615,
        "meta_arg_of_pericenter": 262.4746,
        "meta_mean_anomaly": 312.676,
        "meta_ephemeris_type": 0,
        "meta_classification_type": "U",
        "meta_norad_cat_id": 66426,
        "meta_element_set_no": 999,
        "meta_rev_at_epoch": 458,
        "meta_bstar": 0.0011699,
        "meta_mean_motion_dot": 0.0006869,
        "meta_mean_motion_ddot": 0,
        "tle_line1": "1 66426U 25259E   25336.16671295  .00068690  00000+0  11699-2 0  9999",
        "tle_line2": "2 66426  42.9996 109.1615 0001480 262.4746 312.6760 15.50495469  4582"
      },
      "geometry": {
        "type": "Point",
        "coordinates": [
          53.1381589190903,
          -37.289560359941056
        ]
      }
    },
    {
      "type": "Feature",
      "properties": {
        "norad_id": 66427,
        "name": "STARLINK-35611",
        "group": "last-30-days",
        "lat": -36.513619564095045,
        "lon": 55.33260193177263,
        "alt_km": 417.4511986539519,
        "timestamp": "2025-12-02T08:59:31.502950+00:00",
        "meta_object_name": "STARLINK-35611",
        "meta_object_id": "2025-259F",
        "meta_epoch": "2025-12-02T04:00:03.998880",
        "meta_mean_motion": 15.5049993,
        "meta_eccentricity": 0.0001561,
        "meta_inclination": 42.9996,
        "meta_ra_of_asc_node": 109.1558,
        "meta_arg_of_pericenter": 258.2864,
        "meta_mean_anomaly": 318.7847,
        "meta_ephemeris_type": 0,
        "meta_classification_type": "U",
        "meta_norad_cat_id": 66427,
        "meta_element_set_no": 999,
        "meta_rev_at_epoch": 458,
        "meta_bstar": 0.0011259,
        "meta_mean_motion_dot": 0.00066084,
        "meta_mean_motion_ddot": 0,
        "tle_line1": "1 66427U 25259F   25336.16671295  .00066084  00000+0  11259-2 0  9997",
        "tle_line2": "2 66427  42.9996 109.1558 0001561 258.2864 318.7847 15.50499930  4583"
      },
      "geometry": {
        "type": "Point",
        "coordinates": [
          55.33260193177263,
          -36.513619564095045
        ]
      }
    },
    {
      "type": "Feature",
      "properties": {
        "norad_id": 66428,
        "name": "STARLINK-35610",
        "group": "last-30-days",
        "lat": -35.70480593781221,
        "lon": 57.466322813737214,
        "alt_km": 417.4770454842992,
        "timestamp": "2025-12-02T08:59:31.502961+00:00",
        "meta_object_name": "STARLINK-35610",
        "meta_object_id": "2025-259G",
        "meta_epoch": "2025-12-02T04:00:03.998880",
        "meta_mean_motion": 15.50497173,
        "meta_eccentricity": 0.0001445,
        "meta_inclination": 42.9996,
        "meta_ra_of_asc_node": 109.1513,
        "meta_arg_of_pericenter": 260.3727,
        "meta_mean_anomaly": 318.6114,
        "meta_ephemeris_type": 0,
        "meta_classification_type": "U",
        "meta_norad_cat_id": 66428,
        "meta_element_set_no": 999,
        "meta_rev_at_epoch": 458,
        "meta_bstar": 0.0011145,
        "meta_mean_motion_dot": 0.00065397,
        "meta_mean_motion_ddot": 0,
        "tle_line1": "1 66428U 25259G   25336.16671295  .00065397  00000+0  11145-2 0  9998",
        "tle_line2": "2 66428  42.9996 109.1513 0001445 260.3727 318.6114 15.50497173  4581"
      },
      "geometry": {
        "type": "Point",
        "coordinates": [
          57.466322813737214,
          -35.70480593781221
        ]
      }
    },
    {
      "type": "Feature",
      "properties": {
        "norad_id": 66429,
        "name": "STARLINK-35533",
        "group": "last-30-days",
        "lat": -34.854698386438805,
        "lon": 59.56494701963493,
        "alt_km": 417.4313461627962,
        "timestamp": "2025-12-02T08:59:31.502973+00:00",
        "meta_object_name": "STARLINK-35533",
        "meta_object_id": "2025-259H",
        "meta_epoch": "2025-12-02T04:00:03.998880",
        "meta_mean_motion": 15.50495271,
        "meta_eccentricity": 0.0001495,
        "meta_inclination": 42.9997,
        "meta_ra_of_asc_node": 109.1452,
        "meta_arg_of_pericenter": 260.2893,
        "meta_mean_anomaly": 320.6145,
        "meta_ephemeris_type": 0,
        "meta_classification_type": "U",
        "meta_norad_cat_id": 66429,
        "meta_element_set_no": 999,
        "meta_rev_at_epoch": 458,
        "meta_bstar": 0.0011542,
        "meta_mean_motion_dot": 0.00067752,
        "meta_mean_motion_ddot": 0,
        "tle_line1": "1 66429U 25259H   25336.16671295  .00067752  00000+0  11542-2 0  9997",
        "tle_line2": "2 66429  42.9997 109.1452 0001495 260.2893 320.6145 15.50495271  4587"
      },
      "geometry": {
        "type": "Point",
        "coordinates": [
          59.56494701963493,
          -34.854698386438805
        ]
      }
    },
    {
      "type": "Feature",
      "properties": {
        "norad_id": 66430,
        "name": "STARLINK-35470",
        "group": "last-30-days",
        "lat": -33.97382561739575,
        "lon": 61.61121925541509,
        "alt_km": 417.40764283992485,
        "timestamp": "2025-12-02T08:59:31.502985+00:00",
        "meta_object_name": "STARLINK-35470",
        "meta_object_id": "2025-259J",
        "meta_epoch": "2025-12-02T04:00:03.998880",
        "meta_mean_motion": 15.5048742,
        "meta_eccentricity": 0.0001514,
        "meta_inclination": 42.9997,
        "meta_ra_of_asc_node": 109.1416,
        "meta_arg_of_pericenter": 261.3053,
        "meta_mean_anomaly": 321.5133,
        "meta_ephemeris_type": 0,
        "meta_classification_type": "U",
        "meta_norad_cat_id": 66430,
        "meta_element_set_no": 999,
        "meta_rev_at_epoch": 458,
        "meta_bstar": 0.0011418,
        "meta_mean_motion_dot": 0.00066996,
        "meta_mean_motion_ddot": 0,
        "tle_line1": "1 66430U 25259J   25336.16671295  .00066996  00000+0  11418-2 0  9990",
        "tle_line2": "2 66430  42.9997 109.1416 0001514 261.3053 321.5133 15.50487420  4585"
      },
      "geometry": {
        "type": "Point",
        "coordinates": [
          61.61121925541509,
          -33.97382561739575
        ]
      }
    },
    {
      "type": "Feature",
      "properties": {
        "norad_id": 66431,
        "name": "STARLINK-35439",
        "group": "last-30-days",
        "lat": -33.05408597157955,
        "lon": 63.62408370885723,
        "alt_km": 417.4296523410594,
        "timestamp": "2025-12-02T08:59:31.502995+00:00",
        "meta_object_name": "STARLINK-35439",
        "meta_object_id": "2025-259K",
        "meta_epoch": "2025-12-02T04:00:03.998880",
        "meta_mean_motion": 15.50489253,
        "meta_eccentricity": 0.0001505,
        "meta_inclination": 42.9997,
        "meta_ra_of_asc_node": 109.1355,
        "meta_arg_of_pericenter": 257.2785,
        "meta_mean_anomaly": 327.4581,
        "meta_ephemeris_type": 0,
        "meta_classification_type": "U",
        "meta_norad_cat_id": 66431,
        "meta_element_set_no": 999,
        "meta_rev_at_epoch": 458,
        "meta_bstar": 0.0011389,
        "meta_mean_motion_dot": 0.00066832,
        "meta_mean_motion_ddot": 0,
        "tle_line1": "1 66431U 25259K   25336.16671295  .00066832  00000+0  11389-2 0  9997",
        "tle_line2": "2 66431  42.9997 109.1355 0001505 257.2785 327.4581 15.50489253  4582"
      },
      "geometry": {
        "type": "Point",
        "coordinates": [
          63.62408370885723,
          -33.05408597157955
        ]
      }
    }
  ]
}